NORAD_CAT_ID,OBJECT_NAME,OBJECT_TYPE,EPOCH,MEAN_MOTION,ECCENTRICITY,INCLINATION,RA_OF_ASC_NODE,ARG_OF_PERICENTER,MEAN_ANOMALY,BSTAR,MEAN_MOTION_DOT,MEAN_MOTION_DDOT,TLE_LINE0,TLE_LINE1,TLE_LINE2,SEMIMAJOR_AXIS,PERIOD,APOGEE,PERIGEE,DECAYED
49133.0,STARLINK-3077,PAYLOAD,2022-10-23 11:09:15,14.98336881,0.0003464,70.0001,163.85,241.4637,118.6174,0.00022656,2.612e-05,0.0,0 STARLINK-3077,1 49133U 21082D   22296.46475836  .00002612  00000-0  22656-3 0  9992,2 49133  70.0001 163.8500 0003464 241.4637 118.6174 14.98336881 61250,6950.172,96.107,574.444,569.629,0.0
49133.0,STARLINK-3077,PAYLOAD,2022-10-23 19:09:55,14.98336885,0.0003402,69.9997,163.0082,240.7445,119.3374,0.00041636,4.879e-05,0.0,0 STARLINK-3077,1 49133U 21082D   22296.79855795  .00004879  00000-0  41636-3 0  9990,2 49133  69.9997 163.0082 0003402 240.7445 119.3374 14.98336885 61309,6950.172,96.107,574.401,569.672,0.0
49133.0,STARLINK-3077,PAYLOAD,2022-10-24 01:34:27,14.98344949,0.0003421999999999,69.9996,162.3349,241.1129,118.9687,0.00027992,3.2500000000000004e-05,0.0,0 STARLINK-3077,1 49133U 21082D   22297.06559142  .00003250  00000-0  27992-3 0  9999,2 49133  69.9996 162.3349 0003422 241.1129 118.9687 14.98344949 61348,6950.147,96.106,574.39,569.633,0.0
49133.0,STARLINK-3077,PAYLOAD,2022-10-24 11:11:16,14.98319142,0.0003575,69.9995,161.325,242.8281,117.2514,-0.00025501,-3.134e-05,0.0,0 STARLINK-3077,1 49133U 21082D   22297.46616267 -.00003134  00000-0 -25501-3 0  9992,2 49133  69.9995 161.3250 0003575 242.8281 117.2514 14.98319142 61408,6950.226,96.108,574.576,569.607,0.0
49133.0,STARLINK-3077,PAYLOAD,2022-10-24 12:47:24,14.98318597,0.0003577,69.9994,161.1567,243.7261,116.353,-0.00025349,-3.116e-05,0.0,0 STARLINK-3077,1 49133U 21082D   22297.53292338 -.00003116  00000-0 -25349-3 0  9999,2 49133  69.9994 161.1567 0003577 243.7261 116.3530 14.98318597 61418,6950.228,96.108,574.5790000000002,569.607,0.0
49133.0,STARLINK-3077,PAYLOAD,2022-10-24 19:11:57,14.98313808,0.0003553,69.9996,160.4835,239.4259,120.6549,-0.00018415,-2.289e-05,0.0,0 STARLINK-3077,1 49133U 21082D   22297.79996766 -.00002289  00000-0 -18415-3 0  9999,2 49133  69.9996 160.4835 0003553 239.4259 120.6549 14.98313808 61455,6950.243,96.108,574.577,569.639,0.0
49133.0,STARLINK-3077,PAYLOAD,2022-10-25 11:13:18,14.98317012,0.0003221999999999,69.9985,158.8,242.9681,117.1149,-8.6297e-05,-1.122e-05,0.0,0 STARLINK-3077,1 49133U 21082D   22298.46757750 -.00001122  00000-0 -86297-4 0  9991,2 49133  69.9985 158.8000 0003222 242.9681 117.1149 14.98317012 61558,6950.233,96.108,574.337,569.859,0.0
49133.0,STARLINK-3077,PAYLOAD,2022-10-25 19:13:59,14.98319105,0.000345,69.9985,157.9585,237.7745,122.3079,-8.5772e-05,-1.116e-05,0.0,0 STARLINK-3077,1 49133U 21082D   22298.80137738 -.00001116  00000-0 -85772-4 0  9997,2 49133  69.9985 157.9585 0003450 237.7745 122.3079 14.98319105 61603,6950.227,96.108,574.489,569.694,0.0
49133.0,STARLINK-3077,PAYLOAD,2022-10-26 00:02:23,14.983205900000002,0.0003464,69.9984,157.4537,240.3497,119.7317,-8.8958e-05,-1.154e-05,0.0,0 STARLINK-3077,1 49133U 21082D   22299.00165785 -.00001154  00000-0 -88958-4 0  9994,2 49133  69.9984 157.4537 0003464 240.3497 119.7317 14.98320590 61631,6950.222,96.108,574.495,569.679,0.0
49133.0,STARLINK-3077,PAYLOAD,2022-10-26 20:52:08,14.98312507,0.0003458999999999,69.9984,155.2655,241.2969,118.7843,0.00017002,1.935e-05,0.0,0 STARLINK-3077,1 49133U 21082D   22299.86954568  .00001935  00000-0  17002-3 0  9999,2 49133  69.9984 155.2655 0003459 241.2969 118.7843 14.98312507 61762,6950.246999999999,96.108,574.516,569.7080000000002,0.0
49133.0,STARLINK-3077,PAYLOAD,2022-10-27 09:41:13,14.98320662,0.000338,69.9985,153.9186,236.1175,123.9663,0.00015989,1.815e-05,0.0,0 STARLINK-3077,1 49133U 21082D   22300.40362708  .00001815  00000-0  15989-3 0  9990,2 49133  69.9985 153.9186 0003380 236.1175 123.9663 14.98320662 61840,6950.222,96.108,574.436,569.738,0.0
49133.0,STARLINK-3077,PAYLOAD,2022-10-27 20:54:10,14.9831568,0.0003359,69.9985,152.7404,240.1974,119.8851,0.00038401,4.49e-05,0.0,0 STARLINK-3077,1 49133U 21082D   22300.87095082  .00004490  00000-0  38401-3 0  9995,2 49133  69.9985 152.7404 0003359 240.1974 119.8851 14.98315680 61913,6950.236999999999,96.108,574.437,569.768,0.0
49133.0,STARLINK-3077,PAYLOAD,2022-10-28 00:06:25,14.98325899,0.0003364,69.9985,152.4038,240.4548,119.6276,0.00019862,2.277e-05,0.0,0 STARLINK-3077,1 49133U 21082D   22301.00446721  .00002277  00000-0  19862-3 0  9992,2 49133  69.9985 152.4038 0003364 240.4548 119.6276 14.98325899 61933,6950.206,96.107,574.409,569.7330000000002,0.0
49133.0,STARLINK-3077,PAYLOAD,2022-10-28 08:07:06,14.98329583,0.0003584,69.9987,151.5612,238.7912,121.2896,0.00020174,2.315e-05,0.0,0 STARLINK-3077,1 49133U 21082D   22301.33826555  .00002315  00000-0  20174-3 0  9996,2 49133  69.9987 151.5612 0003584 238.7912 121.2896 14.98329583 61988,6950.194,96.107,574.55,569.568,0.0
49133.0,STARLINK-3077,PAYLOAD,2022-10-28 17:43:54,14.98334733,0.0003371,69.9985,150.5519,235.7921,124.2918,0.00018029,2.059e-05,0.0,0 STARLINK-3077,1 49133U 21082D   22301.73882415  .00002059  00000-0  18029-3 0  9998,2 49133  69.9985 150.5519 0003371 235.7921 124.2918 14.98334733 62041,6950.178000000001,96.107,574.386,569.7,0.0
49133.0,STARLINK-3077,PAYLOAD,2022-10-29 00:08:26,14.98339007,0.0003333,69.9984,149.8783,234.8577,125.227,0.00021607,2.487e-05,0.0,0 STARLINK-3077,1 49133U 21082D   22302.00586045  .00002487  00000-0  21607-3 0  9990,2 49133  69.9984 149.8783 0003333 234.8577 125.2270 14.98339007 62084,6950.165,96.106,574.347,569.714,0.0
49133.0,STARLINK-3077,PAYLOAD,2022-10-29 20:58:11,14.98340256,0.0003163,69.9987,147.6901,242.1848,117.8991,0.00017433,1.988e-05,0.0,0 STARLINK-3077,1 49133U 21082D   22302.87373892  .00001988  00000-0  17433-3 0  9996,2 49133  69.9987 147.6901 0003163 242.1848 117.8991 14.98340256 62219,6950.161,96.106,574.225,569.828,0.0
49133.0,STARLINK-3077,PAYLOAD,2022-10-30 00:10:27,14.98340093,0.0003338,69.9992,147.3537,240.9262,119.1563,-8.1398e-05,-1.064e-05,0.0,0 STARLINK-3077,1 49133U 21082D   22303.00725750 -.00001064  00000-0 -81398-4 0  9995,2 49133  69.9992 147.3537 0003338 240.9262 119.1563 14.98340093 62238,6950.1619999999975,96.106,574.347,569.707,0.0
49133.0,STARLINK-3077,PAYLOAD,2022-10-30 21:00:11,14.98340805,0.0003086,69.9984,145.1653,244.6474,115.4366,7.1927e-05,7.66e-06,0.0,0 STARLINK-3077,1 49133U 21082D   22303.87513490  .00000766  00000-0  71927-4 0  9999,2 49133  69.9984 145.1653 0003086 244.6474 115.4366 14.98340805 62365,6950.159000000002,96.106,574.169,569.88,0.0
49133.0,STARLINK-3077,PAYLOAD,2022-10-31 11:25:23,14.98344704,0.0003295,69.998,143.6504,240.212,119.8712,9.4544e-05,1.036e-05,0.0,0 STARLINK-3077,1 49133U 21082D   22304.47596639  .00001036  00000-0  94544-4 0  9993,2 49133  69.9980 143.6504 0003295 240.2120 119.8712 14.98344704 62456,6950.147,96.106,574.302,569.722,0.0
49133.0,STARLINK-3077,PAYLOAD,2022-10-31 19:26:03,14.983425,0.0003297,69.998,142.8087,239.2457,120.8377,0.00019309,2.212e-05,0.0,0 STARLINK-3077,1 49133U 21082D   22304.80976358  .00002212  00000-0  19309-3 0  9992,2 49133  69.9980 142.8087 0003297 239.2457 120.8377 14.98342500 62503,6950.154,96.106,574.311,569.7280000000002,0.0
49133.0,STARLINK-3077,PAYLOAD,2022-11-01 00:14:28,14.98331114,0.0003355,69.9978,142.3039,238.8053,121.2777,4.9833e-05,5.02e-06,0.0,0 STARLINK-3077,1 49133U 21082D   22305.01005277  .00000502  00000-0  49833-4 0  9995,2 49133  69.9978 142.3039 0003355 238.8053 121.2777 14.98331114 62535,6950.189,96.107,574.386,569.7230000000002,0.0
49133.0,STARLINK-3077,PAYLOAD,2022-11-01 06:39:00,14.98329592,0.000336,69.9978,141.6306,238.3686,121.7146,2.380800000000001e-05,1.91e-06,0.0,0 STARLINK-3077,1 49133U 21082D   22305.27709380  .00000191  00000-0  23808-4 0  9997,2 49133  69.9978 141.6306 0003360 238.3686 121.7146 14.98329592 62573,6950.194,96.107,574.394,569.724,0.0
49133.0,STARLINK-3077,PAYLOAD,2022-11-01 19:28:05,14.98333789,0.000332,69.9979,140.284,240.4953,119.5875,1.3458e-05,6.8e-07,0.0,0 STARLINK-3077,1 49133U 21082D   22305.81117062  .00000068  00000-0  13458-4 0  9990,2 49133  69.9979 140.2840 0003320 240.4953 119.5875 14.98333789 62655,6950.181,96.107,574.354,569.739,0.0
49133.0,STARLINK-3077,PAYLOAD,2022-11-02 13:05:33,14.98337879,0.0003256,69.9978,138.4321,239.5087,120.5751,3.7153e-05,3.5000000000000016e-06,0.0,0 STARLINK-3077,1 49133U 21082D   22306.54552574  .00000350  00000-0  37153-4 0  9994,2 49133  69.9978 138.4321 0003256 239.5087 120.5751 14.98337879 62763,6950.169,96.106,574.297,569.771,0.0
49133.0,STARLINK-3077,PAYLOAD,2022-11-02 19:30:05,14.98340012,0.0003288,69.9977,137.7587,239.9323,120.1511,3.6321e-05,3.4e-06,0.0,0 STARLINK-3077,1 49133U 21082D   22306.81256318  .00000340  00000-0  36321-4 0  9996,2 49133  69.9977 137.7587 0003288 239.9323 120.1511 14.98340012 62808,6950.1619999999975,96.106,574.312,569.742,0.0
49133.0,STARLINK-3077,PAYLOAD,2022-11-02 22:42:21,14.9834094,0.0003364,69.9976,137.4223,238.3196,121.7636,4.962e-05,4.99e-06,0.0,0 STARLINK-3077,1 49133U 21082D   22306.94608153  .00000499  00000-0  49620-4 0  9999,2 49133  69.9976 137.4223 0003364 238.3196 121.7636 14.98340940 62824,6950.159000000002,96.106,574.362,569.686,0.0
49133.0,STARLINK-3077,PAYLOAD,2022-11-03 17:55:57,14.98339956,0.0003216,69.9974,135.4019,239.5752,120.5089,0.00018971,2.172e-05,0.0,0 STARLINK-3077,1 49133U 21082D   22307.74719804  .00002172  00000-0  18971-3 0  9998,2 49133  69.9974 135.4019 0003216 239.5752 120.5089 14.98339956 62947,6950.1619999999975,96.106,574.262,569.7919999999998,0.0
49133.0,STARLINK-3077,PAYLOAD,2022-11-04 11:33:27,14.98322672,0.0003202,69.9974,133.5503,240.5795,119.5044,-5.201300000000001e-05,-7.13e-06,0.0,0 STARLINK-3077,1 49133U 21082D   22308.48157178 -.00000713  00000-0 -52013-4 0  9997,2 49133  69.9974 133.5503 0003202 240.5795 119.5044 14.98322672 63057,6950.215999999999,96.107,574.306,569.855,0.0
